[{"OBJECT_NAME":"FLOCK 4G-8","OBJECT_ID":"2025-009E","EPOCH":"2026-03-09T17:22:17.546016","MEAN_MOTION":15.27623414,"ECCENTRICITY":0.00030503,"INCLINATION":97.4045,"RA_OF_ASC_NODE":151.2834,"ARG_OF_PERICENTER":315.2538,"MEAN_ANOMALY":44.8455,"EPHEMERIS_TYPE":0,"CLASSIFICATION_TYPE":"U","NORAD_CAT_ID":62613,"ELEMENT_SET_NO":999,"REV_AT_EPOCH":6372,"BSTAR":0.0005043806,"MEAN_MOTION_DOT":0.00013559,"MEAN_MOTION_DDOT":0},{"OBJECT_NAME":"STARLINK-32926","OBJECT_ID":"2025-032W","EPOCH":"2026-03-09T19:42:56.227968","MEAN_MOTION":15.27624608,"ECCENTRICITY":0.00018345,"INCLINATION":43.0004,"RA_OF_ASC_NODE":335.002,"ARG_OF_PERICENTER":348.5664,"MEAN_ANOMALY":11.5146,"EPHEMERIS_TYPE":0,"CLASSIFICATION_TYPE":"U","NORAD_CAT_ID":63025,"ELEMENT_SET_NO":999,"REV_AT_EPOCH":6064,"BSTAR":0.0014343695,"MEAN_MOTION_DOT":0.00039474,"MEAN_MOTION_DDOT":0}]
